H-2A R/B                
1 28932U 06002B   26076.13116954  .00008520  00000+0  42533-3 0  9997
2 28932  98.2418 223.7965 0051996 215.3822 144.3955 15.16589419 95560
RESURS-DK 1             
1 29228U 06021A   26075.80896721  .00002855  00000+0  16832-3 0  9995
2 29228  69.9330 218.6056 0001128 150.4180 209.7050 15.12798052 88609
CZ-4B R/B               
1 29507U 06046C   26076.12909661  .00003840  00000+0  19555-3 0  9996
2 29507  97.5582 121.0180 0031841 240.2506 119.5558 15.16982191 61172
CZ-2C R/B               
1 31114U 07010B   26076.05271325  .00000107  00000+0  68590-4 0  9993
2 31114  98.3984 188.9626 0057829 272.7931  86.6628 14.20248851980766
COSMO-SKYMED 1          
1 31598U 07023A   26076.15288808  .00003393  00000+0  30314-3 0  9990
2 31598  97.8882 267.2456 0001574  90.7099 269.4303 14.96600352 16025
COSMOS 2428             
1 31792U 07029A   26075.61422198 -.00000019  00000+0  15710-4 0  9991
2 31792  70.9439 188.8098 0009390 270.0339  89.9706 14.12947222965073
SL-16 R/B               
1 31793U 07029B   26074.66384344  .00000274  00000+0  16675-3 0  9998
2 31793  70.9757 159.8277 0002271 276.2076 246.2511 14.14835963966210
KORONAS-FOTON           
1 33504U 09003A   26076.02568901  .00011407  00000+0  25307-3 0  9991
2 33504  82.4270 268.2495 0011703 125.6134 234.6205 15.43502654946871
CZ-2C R/B               
1 37731U 11030B   26075.90860517  .00001481  00000+0  19264-3 0  9990
2 37731  97.8556  33.0277 0051801 328.4169  98.2177 14.81250046791162
H-2A R/B                
1 38341U 12025E   26075.88915671  .00002352  00000+0  21634-3 0  9994
2 38341  98.4735  43.5121 0043294 290.0304  69.6256 14.95221717749297
SHIJIAN-16 (SJ-16)      
1 39358U 13057A   26076.20433789  .00002110  00000+0  20845-3 0  9996
2 39358  74.9735 170.8637 0015372  93.2516 267.0431 14.92382151672623
SL-4 R/B                
1 39679U 14021B   26075.96503822  .00014258  00000+0  31321-3 0  9999
2 39679  51.6063 301.7801 0096870 129.5376 231.4219 15.39428092657395
